STARLINK-32527          
1 62319U 24239U   26068.52617986  .00018455  00000+0  63398-3 0  9991
2 62319  53.1574 181.5540 0001160  65.5652 294.5470 15.30184744 69541
TANSTAAFL-2             
1 62378U 24247B   26067.20753490  .00013897  00000+0  50872-3 0  9998
2 62378  44.9880 125.0934 0003072 298.8909  61.1666 15.28016845 67506
